OBJECT_NAME,OBJECT_ID,EPOCH,MEAN_MOTION,ECCENTRICITY,INCLINATION,RA_OF_ASC_NODE,ARG_OF_PERICENTER,MEAN_ANOMALY,EPHEMERIS_TYPE,CLASSIFICATION_TYPE,NORAD_CAT_ID,ELEMENT_SET_NO,REV_AT_EPOCH,BSTAR,MEAN_MOTION_DOT,MEAN_MOTION_DDOT
EUTELSAT QUANTUM,2021-069B,2026-06-18T18:17:49.761600,1.00272154,.00021116,0.0145,22.6393,63.8054,142.7031,0,U,49056,999,1794,0,.12E-5,0
ZHONGXING-2E,2021-071A,2026-06-18T17:00:36.114912,1.00269218,.00018343,0.0363,206.9520,284.3744,128.8190,0,U,49062,999,1805,0,-.297E-5,0
TJS-7,2021-077A,2026-06-15T06:52:43.035744,1.00269621,.0001963,0.5030,86.1055,333.0157,208.1393,0,U,49115,999,953,0,-.12E-5,0
CHINASAT 9B,2021-080A,2026-06-18T23:40:10.676352,1.00267621,.00015609,0.0394,262.9755,213.3646,247.2980,0,U,49125,999,1766,0,-.318E-5,0
SHIJIAN-21 (SJ-21),2021-094A,2026-06-18T23:48:18.151200,1.00269868,.00497141,5.1182,61.1749,168.2906,162.8654,0,U,49330,999,537,0,-.355E-5,0
SES-17,2021-095A,2026-06-18T14:18:52.046208,1.00269036,.00008114,0.0267,40.8266,45.0665,328.5524,0,U,49332,999,1786,0,-.278E-5,0
SYRACUSE 4A,2021-095B,2026-06-18T21:41:39.157152,1.00268512,.00016209,0.0179,6.1729,74.7249,197.1470,0,U,49333,999,1796,0,.129E-5,0
QZS-1R (MICHIBIKI-1R),2021-096A,2026-06-18T16:08:44.895840,1.00254899,.07546763,37.4655,79.5604,271.8345,291.5952,0,U,49336,999,1702,0,-.287E-5,0
ZHONGXING-1D,2021-114A,2026-06-18T22:05:44.346624,1.00267913,.00007523,0.0331,210.6536,11.2674,146.8211,0,U,49505,999,1683,0,-.343E-5,0
STPSAT-6,2021-118A,2026-06-18T15:48:40.121280,1.00269032,.00012335,0.3257,85.3524,251.7538,55.3152,0,U,49817,999,1658,0,-.52E-6,0
EXPRESS AMU-7,2021-123A,2026-06-18T23:52:39.480096,1.00272165,.00004217,0.0131,297.2206,18.8284,94.3405,0,U,50001,999,1655,0,-.249E-5,0
EXPRESS AMU-3,2021-123B,2026-06-18T23:19:37.341408,1.00270806,.00002568,0.0252,318.2116,351.4962,50.2899,0,U,50002,999,704,0,0,0
TIANLIAN 2-02,2021-124A,2026-06-18T22:17:20.734944,1.00270998,.00014304,0.8068,86.0739,196.8021,129.5804,0,U,50005,999,1663,0,-.21E-6,0
TURKSAT 5B,2021-126A,2026-06-18T21:13:21.220032,1.00271005,.00032304,0.0671,343.2981,12.7956,271.3517,0,U,50212,999,1631,0,.14E-5,0
INMARSAT 6-F1,2021-128A,2026-06-18T20:09:55.247328,1.00270212,.0000303,0.0186,327.5438,244.7765,80.9907,0,U,50319,999,1627,0,-.178E-5,0
SHIYAN-12 01 (SY-12 01),2021-129A,2026-06-17T19:17:22.677216,1.00039709,.0003248,3.6768,79.9013,285.9957,249.0802,0,U,50321,999,1650,0,.79E-6,0
SHIYAN-12 02 (SY-12 02),2021-129B,2026-06-17T18:31:37.411392,1.00489217,.0002693,3.6763,79.9071,60.0968,133.2903,0,U,50322,999,1650,0,-.271E-5,0
TJS-9,2021-135A,2026-06-18T23:50:24.695232,1.00273850,.00035829,0.0375,242.9251,168.1375,350.9594,0,U,50574,999,1644,0,-.305E-5,0
USA 324,2022-006A,2026-06-06T02:06:38.886912,1.00289779,.000284,0.7690,83.2777,165.6787,110.1567,0,U,51280,999,1602,0,-.58E-6,0
GOES 18,2022-021A,2026-06-18T19:06:49.876704,1.00271259,.00003466,0.0077,61.9151,83.1966,271.6138,0,U,51850,999,660,0,.9E-6,0
ZHONGXING-6D,2022-038A,2026-06-18T21:51:38.937312,1.00269467,.00006006,0.0147,311.1733,145.9452,262.8884,0,U,52255,999,1543,0,0,0
NILESAT 301,2022-061A,2026-06-18T21:26:38.343840,1.00270879,.00046387,0.0491,16.4733,40.0916,165.2164,0,U,52817,999,1475,0,-.64E-6,0
CMS-02 (GSAT-24),2022-067A,2026-06-18T21:52:15.640032,1.00271974,.00018287,0.0529,255.4623,109.8377,312.9170,0,U,52903,999,1462,0,-.171E-5,0
MEASAT 3D,2022-067B,2026-06-18T21:36:21.782304,1.00271824,.00013728,0.0275,345.2691,28.7264,308.7265,0,U,52904,999,1466,0,-.248E-5,0
SES-22,2022-071A,2026-06-18T15:41:03.351264,1.00271813,.00013199,0.0160,356.3516,78.2216,288.5609,0,U,52933,999,753,0,.98E-6,0
WFOV (USA 332),2022-073A,2026-06-18T19:45:29.102400,1.00274299,.00020758,3.7160,78.5081,253.9305,350.2401,0,U,52940,999,1438,0,-.37E-5,0
TIANLIAN 2-03,2022-078A,2026-06-18T21:31:37.864992,1.00271079,.00014201,0.6754,77.0705,331.7460,191.8004,0,U,53100,999,1456,0,.65E-6,0
SBIRS GEO-6 (USA 336),2022-092A,2026-06-18T22:08:14.108064,1.00270921,.00017911,3.2542,317.5361,120.1503,300.5300,0,U,53355,999,1425,0,-.298E-5,0
EUTELSAT KONNECT VHTS,2022-110A,2026-06-18T21:29:23.080128,1.00269486,.00023923,0.0643,100.0542,331.4903,160.6158,0,U,53765,999,685,0,.1E-6,0
ZHONGXING-1E,2022-112A,2026-06-18T23:34:33.714624,1.00272190,.00007222,0.0442,193.2766,123.2546,25.7283,0,U,53813,999,1386,0,-.156E-5,0
SES-20,2022-123A,2026-06-18T14:54:41.006016,1.00268717,.00017469,0.0291,67.1538,29.3543,290.9129,0,U,53960,999,1354,0,-.107E-5,0
SES-21,2022-123B,2026-06-18T08:52:38.821728,1.00268628,.0001037,0.0391,19.3205,69.0217,180.5054,0,U,53961,999,722,0,0,0
