EUTELSAT QUANTUM        
1 49056U 21069B   26169.76238150  .00000120  00000+0  00000+0 0  9999
2 49056   0.0145  22.6393 0002111  63.8054 142.7031  1.00272154 17943
ZHONGXING-2E            
1 49062U 21071A   26169.70875133 -.00000297  00000+0  00000+0 0  9997
2 49062   0.0363 206.9520 0001834 284.3744 128.8190  1.00269218 18059
TJS-7                   
1 49115U 21077A   26166.28660921 -.00000120  00000+0  00000+0 0  9994
2 49115   0.5030  86.1055 0001963 333.0157 208.1393  1.00269621  9536
CHINASAT 9B             
1 49125U 21080A   26169.98623468 -.00000318  00000+0  00000+0 0  9993
2 49125   0.0394 262.9755 0001560 213.3646 247.2980  1.00267621 17669
SHIJIAN-21 (SJ-21)      
1 49330U 21094A   26169.99187675 -.00000355  00000+0  00000+0 0  9993
2 49330   5.1182  61.1749 0049714 168.2906 162.8654  1.00269868  5370
SES-17                  
1 49332U 21095A   26169.59643572 -.00000278  00000+0  00000+0 0  9999
2 49332   0.0267  40.8266 0000811  45.0665 328.5524  1.00269036 17868
SYRACUSE 4A             
1 49333U 21095B   26169.90392543  .00000129  00000+0  00000+0 0  9998
2 49333   0.0179   6.1729 0001620  74.7249 197.1470  1.00268512 17965
QZS-1R (MICHIBIKI-1R)   
1 49336U 21096A   26169.67274185 -.00000287  00000+0  00000+0 0  9993
2 49336  37.4655  79.5604 0754676 271.8345 291.5952  1.00254899 17024
ZHONGXING-1D            
1 49505U 21114A   26169.92065216 -.00000343  00000+0  00000+0 0  9996
2 49505   0.0331 210.6536 0000752  11.2674 146.8211  1.00267913 16830
STPSAT-6                
1 49817U 21118A   26169.65879770 -.00000052  00000+0  00000+0 0  9991
2 49817   0.3257  85.3524 0001233 251.7538  55.3152  1.00269032 16589
EXPRESS AMU-7           
1 50001U 21123A   26169.99490139 -.00000249  00000+0  00000+0 0  9997
2 50001   0.0131 297.2206 0000421  18.8284  94.3405  1.00272165 16555
EXPRESS AMU-3           
1 50002U 21123B   26169.97195997  .00000000  00000+0  00000+0 0  9994
2 50002   0.0252 318.2116 0000256 351.4962  50.2899  1.00270806  7041
TIANLIAN 2-02           
1 50005U 21124A   26169.92871221 -.00000021  00000+0  00000+0 0  9998
2 50005   0.8068  86.0739 0001430 196.8021 129.5804  1.00270998 16633
TURKSAT 5B              
1 50212U 21126A   26169.88427338  .00000140  00000+0  00000+0 0  9992
2 50212   0.0671 343.2981 0003230  12.7956 271.3517  1.00271005 16317
INMARSAT 6-F1           
1 50319U 21128A   26169.84022277 -.00000178  00000+0  00000+0 0  9993
2 50319   0.0186 327.5438 0000303 244.7765  80.9907  1.00270212 16272
SHIYAN-12 01 (SY-12 01) 
1 50321U 21129A   26168.80373469  .00000079  00000+0  00000+0 0  9993
2 50321   3.6768  79.9013 0003248 285.9957 249.0802  1.00039709 16500
SHIYAN-12 02 (SY-12 02) 
1 50322U 21129B   26168.77196078 -.00000271  00000+0  00000+0 0  9994
2 50322   3.6763  79.9071 0002693  60.0968 133.2903  1.00489217 16506
TJS-9                   
1 50574U 21135A   26169.99334138 -.00000305  00000+0  00000+0 0  9994
2 50574   0.0375 242.9251 0003582 168.1375 350.9594  1.00273850 16448
USA 324                 
1 51280U 22006A   26157.08795008 -.00000058  00000+0  00000+0 0  9996
2 51280   0.7690  83.2777 0002840 165.6787 110.1567  1.00289779 16021
GOES 18                 
1 51850U 22021A   26169.79641061  .00000090  00000+0  00000+0 0  9991
2 51850   0.0077  61.9151 0000346  83.1966 271.6138  1.00271259  6601
ZHONGXING-6D            
1 52255U 22038A   26169.91086733  .00000000  00000+0  00000+0 0  9993
2 52255   0.0147 311.1733 0000600 145.9452 262.8884  1.00269467 15434
NILESAT 301             
1 52817U 22061A   26169.89349935 -.00000064  00000+0  00000+0 0  9997
2 52817   0.0491  16.4733 0004638  40.0916 165.2164  1.00270879 14750
CMS-02 (GSAT-24)        
1 52903U 22067A   26169.91129213 -.00000171  00000+0  00000+0 0  9996
2 52903   0.0529 255.4623 0001828 109.8377 312.9170  1.00271974 14625
MEASAT 3D               
1 52904U 22067B   26169.90025211 -.00000248  00000+0  00000+0 0  9994
2 52904   0.0275 345.2691 0001372  28.7264 308.7265  1.00271824 14661
SES-22                  
1 52933U 22071A   26169.65351101  .00000098  00000+0  00000+0 0  9995
2 52933   0.0160 356.3516 0001319  78.2216 288.5609  1.00271813  7536
WFOV (USA 332)          
1 52940U 22073A   26169.82325350 -.00000370  00000+0  00000+0 0  9995
2 52940   3.7160  78.5081 0002075 253.9305 350.2401  1.00274299 14384
TIANLIAN 2-03           
1 53100U 22078A   26169.89696603  .00000065  00000+0  00000+0 0  9998
2 53100   0.6754  77.0705 0001420 331.7460 191.8004  1.00271079 14566
SBIRS GEO-6 (USA 336)   
1 53355U 22092A   26169.92238551 -.00000298  00000+0  00000+0 0  9993
2 53355   3.2542 317.5361 0001791 120.1503 300.5300  1.00270921 14250
EUTELSAT KONNECT VHTS   
1 53765U 22110A   26169.89540602  .00000010  00000+0  00000+0 0  9999
2 53765   0.0643 100.0542 0002392 331.4903 160.6158  1.00269486  6854
ZHONGXING-1E            
1 53813U 22112A   26169.98233466 -.00000156  00000+0  00000+0 0  9994
2 53813   0.0442 193.2766 0000722 123.2546  25.7283  1.00272190 13867
SES-20                  
1 53960U 22123A   26169.62130794 -.00000107  00000+0  00000+0 0  9996
2 53960   0.0291  67.1538 0001746  29.3543 290.9129  1.00268717 13548
SES-21                  
1 53961U 22123B   26169.36989377  .00000000  00000+0  00000+0 0  9998
2 53961   0.0391  19.3205 0001037  69.0217 180.5054  1.00268628  7222
